HIMAWARI-8              
1 40267U 14060A   23265.42776031 -.00000274  00000+0  00000+0 0  9990
2 40267   0.0138 237.7915 0000702 295.0691 122.8207  1.00274550 32740
